[Satellite]
VERSION=1.1
NAME=SL-14 R/B
NICKNAME=SL-14 R/B
TLE1=1 20511U 90018B   18020.83117417  .00000106  00000-0  10872-4 0  9999
TLE2=2 20511  82.5241 111.4392 0018902 117.3599  22.2085 14.79969302483159
